OBJECT_NAME,OBJECT_ID,EPOCH,MEAN_MOTION,ECCENTRICITY,INCLINATION,RA_OF_ASC_NODE,ARG_OF_PERICENTER,MEAN_ANOMALY,EPHEMERIS_TYPE,CLASSIFICATION_TYPE,NORAD_CAT_ID,ELEMENT_SET_NO,REV_AT_EPOCH,BSTAR,MEAN_MOTION_DOT,MEAN_MOTION_DDOT
EUTELSAT 5 WEST B,2019-067A,2026-06-04T22:05:39.184224,1.00272094,.0003343,0.0652,339.3213,95.2686,145.1910,0,U,44624,999,2431,0,-.3E-6,0
TJS-4,2019-070A,2026-06-04T22:30:51.177312,1.00271272,.00051315,0.0216,277.1055,122.1369,275.3863,0,U,44637,999,2441,0,-.158E-5,0
BEIDOU-3 IGSO-3,2019-073A,2026-05-16T19:27:04.075776,1.00246251,.0042953,54.8566,281.2355,189.4588,170.3676,0,U,44709,999,2414,0,-.217E-5,0
TIBA-1,2019-080A,2026-06-04T17:56:44.323008,1.00273145,.00022415,0.0557,14.1285,71.8797,111.8546,0,U,44800,999,2393,0,.168E-5,0
INMARSAT GX5,2019-080B,2026-06-04T17:36:55.478880,1.00275786,.00022285,0.0361,356.0593,75.6456,96.7714,0,U,44801,999,666,0,.88E-6,0
JCSAT-18 (KACIFIC 1),2019-091A,2026-06-04T14:20:38.497920,1.00270519,.00001669,0.0154,247.0670,277.4292,93.7170,0,U,44868,999,2388,0,-.189E-5,0
ELEKTRO-L 3,2019-095A,2026-06-04T22:28:43.879872,1.00272856,.00015243,0.2259,81.1460,347.7268,237.6277,0,U,44903,999,2358,0,-.84E-6,0
SHIJIAN-20 (SJ-20),2019-097A,2026-06-04T18:08:30.494400,1.00273675,.0013768,4.8869,75.2148,51.7508,83.1063,0,U,44910,999,2357,0,.147E-5,0
TJS-5,2020-002A,2026-06-04T20:34:52.730400,1.00272157,.0007652,0.0417,282.1806,124.4287,262.9137,0,U,44978,999,2358,0,-.33E-5,0
GSAT-30,2020-005A,2026-06-04T18:55:51.985632,1.00270651,.00036034,0.0473,109.3708,332.3875,178.4488,0,U,45026,999,2338,0,-.152E-5,0
EUTELSAT KONNECT,2020-005B,2026-06-04T15:18:27.808704,1.00271610,.00008963,0.0728,98.8400,126.3177,264.7734,0,U,45027,999,2421,0,.62E-6,0
JCSAT-17,2020-013A,2026-06-04T21:03:08.180064,1.00272102,.00030236,5.3923,356.7459,74.6941,273.6756,0,U,45245,999,2310,0,-.307E-5,0
GEO-KOMPSAT-2B,2020-013B,2026-06-04T21:01:00.884352,1.00269225,.00003532,0.0369,198.4923,109.4268,28.9066,0,U,45246,999,2315,0,-.332E-5,0
BEIDOU-3 G2,2020-017A,2026-06-04T19:04:30.777888,1.00270930,.00028887,2.8392,47.1642,25.2494,186.9685,0,U,45344,999,2313,0,-.129E-5,0
AEHF-6 (USA 298),2020-022B,2026-06-04T21:03:45.619776,1.00277171,.00431636,2.5756,300.9777,17.6721,28.2738,0,U,45465,999,2289,0,-.286E-5,0
BEIDOU-3 G3,2020-040A,2026-06-04T22:38:35.434752,1.00274315,.00030764,2.4173,67.4228,336.0355,300.1398,0,U,45807,999,2194,0,-.342E-5,0
APSTAR-6D,2020-045A,2026-06-04T12:29:18.753216,1.00269431,.0001778,0.0477,81.3890,31.0241,101.9302,0,U,45863,999,2173,0,-.306E-5,0
KOREASAT 116,2020-048A,2026-06-04T19:35:47.105088,1.00269038,.00013267,0.0185,295.9405,174.5618,192.8940,0,U,45920,999,2151,0,-.35E-5,0
EXPRESS 103,2020-053A,2026-06-04T10:35:53.342304,1.00272180,.00003394,0.0136,291.6750,108.4256,108.2692,0,U,45985,999,2152,0,-.269E-5,0
EXPRESS 80,2020-053B,2026-06-04T01:50:00.355200,1.00267793,.00018126,0.0187,300.4990,199.0641,220.4553,0,U,45986,999,2150,0,-.123E-5,0
BSAT-4B,2020-056A,2026-06-04T21:26:04.629696,1.00271506,.00040908,0.0503,149.3762,320.9421,214.3712,0,U,46112,999,2126,0,-.338E-5,0
MEV-2,2020-056B,2026-06-04T15:16:05.536416,1.00271631,.00001271,0.0141,341.1636,105.7346,34.2013,0,U,46113,999,8042,0,.1E-7,0
GALAXY 30 (G-30),2020-056C,2026-06-04T21:31:20.476128,1.00272508,.0002431,0.0190,329.0928,101.8091,20.2554,0,U,46114,999,2117,0,.49E-6,0
GAOFEN-13 01,2020-071A,2026-06-04T22:40:50.219616,1.00265834,.00417861,0.4892,84.9648,122.7166,144.0365,0,U,46610,999,2079,0,-.35E-5,0
TIANTONG-1 2,2020-082A,2026-06-04T22:42:42.539616,1.00270269,.00016088,0.8068,325.7397,104.8170,288.4599,0,U,46916,999,2053,0,-.344E-5,0
LUCAS (JDRS-1),2020-089A,2026-06-04T21:36:21.823776,1.00269493,.00028265,0.0372,272.9538,147.4448,247.8146,0,U,47202,999,2029,0,-.223E-5,0
SXM-7,2020-096A,2026-06-04T14:52:09.457824,1.00269581,.00040974,0.0308,101.3496,23.0140,266.5855,0,U,47240,999,731,0,-.193E-5,0
CMS-01,2020-099A,2026-06-04T22:30:43.689024,1.00271089,.00034859,0.0684,102.0586,183.4199,28.5807,0,U,47256,999,2007,0,-.152E-5,0
TURKSAT 5A,2021-001A,2026-06-04T22:15:53.203104,1.00270496,.00003083,0.0176,50.1532,71.6994,136.4263,0,U,47306,999,1984,0,.166E-5,0
TIANTONG-1 3,2021-003A,2026-06-04T22:30:21.225024,1.00273280,.00035419,1.7663,338.5502,100.4202,233.5356,0,U,47321,999,1983,0,-.144E-5,0
TJS-6,2021-010A,2026-06-02T12:47:20.190048,1.00272435,.00026319,0.5630,87.7253,337.8803,195.7324,0,U,47613,999,1966,0,.55E-6,0
