EUTELSAT 5 WEST B       
1 44624U 19067A   26155.92059241 -.00000030  00000+0  00000+0 0  9996
2 44624   0.0652 339.3213 0003343  95.2686 145.1910  1.00272094 24314
TJS-4                   
1 44637U 19070A   26155.93809233 -.00000158  00000+0  00000+0 0  9990
2 44637   0.0216 277.1055 0005131 122.1369 275.3863  1.00271272 24413
BEIDOU-3 IGSO-3         
1 44709U 19073A   26136.81046384 -.00000217  00000+0  00000+0 0  9995
2 44709  54.8566 281.2355 0042953 189.4588 170.3676  1.00246251 24144
TIBA-1                  
1 44800U 19080A   26155.74773522  .00000168  00000+0  00000+0 0  9993
2 44800   0.0557  14.1285 0002241  71.8797 111.8546  1.00273145 23930
INMARSAT GX5            
1 44801U 19080B   26155.73397545  .00000088  00000+0  00000+0 0  9991
2 44801   0.0361 356.0593 0002228  75.6456  96.7714  1.00275786  6665
JCSAT-18 (KACIFIC 1)    
1 44868U 19091A   26155.59766780 -.00000189  00000+0  00000+0 0  9994
2 44868   0.0154 247.0670 0000166 277.4292  93.7170  1.00270519 23887
ELEKTRO-L 3             
1 44903U 19095A   26155.93661898 -.00000084  00000+0  00000+0 0  9994
2 44903   0.2259  81.1460 0001524 347.7268 237.6277  1.00272856 23582
SHIJIAN-20 (SJ-20)      
1 44910U 19097A   26155.75590850  .00000147  00000+0  00000+0 0  9992
2 44910   4.8869  75.2148 0013768  51.7508  83.1063  1.00273675 23572
TJS-5                   
1 44978U 20002A   26155.85755475 -.00000330  00000+0  00000+0 0  9996
2 44978   0.0417 282.1806 0007652 124.4287 262.9137  1.00272157 23584
GSAT-30                 
1 45026U 20005A   26155.78879613 -.00000152  00000+0  00000+0 0  9999
2 45026   0.0473 109.3708 0003603 332.3875 178.4488  1.00270651 23382
EUTELSAT KONNECT        
1 45027U 20005B   26155.63782186  .00000062  00000+0  00000+0 0  9991
2 45027   0.0728  98.8400 0000896 126.3177 264.7734  1.00271610 24216
JCSAT-17                
1 45245U 20013A   26155.87717801 -.00000307  00000+0  00000+0 0  9993
2 45245   5.3923 356.7459 0003023  74.6941 273.6756  1.00272102 23109
GEO-KOMPSAT-2B          
1 45246U 20013B   26155.87570468 -.00000332  00000+0  00000+0 0  9998
2 45246   0.0369 198.4923 0000353 109.4268  28.9066  1.00269225 23157
BEIDOU-3 G2             
1 45344U 20017A   26155.79480067 -.00000129  00000+0  00000+0 0  9991
2 45344   2.8392  47.1642 0002888  25.2494 186.9685  1.00270930 23136
AEHF-6 (USA 298)        
1 45465U 20022B   26155.87761134 -.00000286  00000+0  00000+0 0  9991
2 45465   2.5756 300.9777 0043163  17.6721  28.2738  1.00277171 22892
BEIDOU-3 G3             
1 45807U 20040A   26155.94346568 -.00000342  00000+0  00000+0 0  9992
2 45807   2.4173  67.4228 0003076 336.0355 300.1398  1.00274315 21946
APSTAR-6D               
1 45863U 20045A   26155.52035594 -.00000306  00000+0  00000+0 0  9997
2 45863   0.0477  81.3890 0001778  31.0241 101.9302  1.00269431 21734
KOREASAT 116            
1 45920U 20048A   26155.81651742 -.00000350  00000+0  00000+0 0  9994
2 45920   0.0185 295.9405 0001326 174.5618 192.8940  1.00269038 21515
EXPRESS 103             
1 45985U 20053A   26155.44158961 -.00000269  00000+0  00000+0 0  9994
2 45985   0.0136 291.6750 0000339 108.4256 108.2692  1.00272180 21523
EXPRESS 80              
1 45986U 20053B   26155.07639300 -.00000123  00000+0  00000+0 0  9994
2 45986   0.0187 300.4990 0001812 199.0641 220.4553  1.00267793 21501
BSAT-4B                 
1 46112U 20056A   26155.89310914 -.00000338  00000+0  00000+0 0  9994
2 46112   0.0503 149.3762 0004090 320.9421 214.3712  1.00271506 21263
MEV-2                   
1 46113U 20056B   26155.63617519  .00000001  00000+0  00000+0 0  9994
2 46113   0.0141 341.1636 0000127 105.7346  34.2013  1.00271631 80421
GALAXY 30 (G-30)        
1 46114U 20056C   26155.89676477  .00000049  00000+0  00000+0 0  9993
2 46114   0.0190 329.0928 0002431 101.8091  20.2554  1.00272508 21175
GAOFEN-13 01            
1 46610U 20071A   26155.94502569 -.00000350  00000+0  00000+0 0  9993
2 46610   0.4892  84.9648 0041786 122.7166 144.0365  1.00265834 20792
TIANTONG-1 2            
1 46916U 20082A   26155.94632569 -.00000344  00000+0  00000+0 0  9991
2 46916   0.8068 325.7397 0001608 104.8170 288.4599  1.00270269 20534
LUCAS (JDRS-1)          
1 47202U 20089A   26155.90025259 -.00000223  00000+0  00000+0 0  9991
2 47202   0.0372 272.9538 0002826 147.4448 247.8146  1.00269493 20294
SXM-7                   
1 47240U 20096A   26155.61955391 -.00000193  00000+0  00000+0 0  9994
2 47240   0.0308 101.3496 0004097  23.0140 266.5855  1.00269581  7314
CMS-01                  
1 47256U 20099A   26155.93800566 -.00000152  00000+0  00000+0 0  9997
2 47256   0.0684 102.0586 0003485 183.4199  28.5807  1.00271089 20078
TURKSAT 5A              
1 47306U 21001A   26155.92769911  .00000166  00000+0  00000+0 0  9998
2 47306   0.0176  50.1532 0000308  71.6994 136.4263  1.00270496 19845
TIANTONG-1 3            
1 47321U 21003A   26155.93774566 -.00000144  00000+0  00000+0 0  9997
2 47321   1.7663 338.5502 0003541 100.4202 233.5356  1.00273280 19831
TJS-6                   
1 47613U 21010A   26153.53287257  .00000055  00000+0  00000+0 0  9999
2 47613   0.5630  87.7253 0002631 337.8803 195.7324  1.00272435 19660
